[{"OBJECT_NAME":"STARLINK-35177","OBJECT_ID":"2025-211X","EPOCH":"2025-10-07T16:00:03.000096","MEAN_MOTION":15.49218048,"ECCENTRICITY":0.00010072,"INCLINATION":97.6033,"RA_OF_ASC_NODE":322.2272,"ARG_OF_PERICENTER":88.9812,"MEAN_ANOMALY":209.5612,"EPHEMERIS_TYPE":0,"CLASSIFICATION_TYPE":"U","NORAD_CAT_ID":65673,"ELEMENT_SET_NO":999,"REV_AT_EPOCH":375,"BSTAR":-0.0013176662,"MEAN_MOTION_DOT":-0.00071197,"MEAN_MOTION_DDOT":0},{"OBJECT_NAME":"STARLINK-35254","OBJECT_ID":"2025-211Y","EPOCH":"2025-10-07T16:00:03.000096","MEAN_MOTION":15.49227457,"ECCENTRICITY":0.00012028,"INCLINATION":97.6034,"RA_OF_ASC_NODE":322.2283,"ARG_OF_PERICENTER":87.0139,"MEAN_ANOMALY":213.4385,"EPHEMERIS_TYPE":0,"CLASSIFICATION_TYPE":"U","NORAD_CAT_ID":65674,"ELEMENT_SET_NO":999,"REV_AT_EPOCH":391,"BSTAR":-0.0016069932,"MEAN_MOTION_DOT":-0.00086669,"MEAN_MOTION_DDOT":0},{"OBJECT_NAME":"STARLINK-34749","OBJECT_ID":"2025-211Z","EPOCH":"2025-10-07T16:00:03.000096","MEAN_MOTION":15.49230223,"ECCENTRICITY":0.00011939,"INCLINATION":97.6034,"RA_OF_ASC_NODE":322.2262,"ARG_OF_PERICENTER":77.7392,"MEAN_ANOMALY":218.8804,"EPHEMERIS_TYPE":0,"CLASSIFICATION_TYPE":"U","NORAD_CAT_ID":65675,"ELEMENT_SET_NO":999,"REV_AT_EPOCH":396,"BSTAR":-0.0017391922,"MEAN_MOTION_DOT":-0.00093716,"MEAN_MOTION_DDOT":0},{"OBJECT_NAME":"STARLINK-35330","OBJECT_ID":"2025-218A","EPOCH":"2025-10-07T14:00:01.999872","MEAN_MOTION":15.77714058,"ECCENTRICITY":0.00013913,"INCLINATION":97.5961,"RA_OF_ASC_NODE":140.379,"ARG_OF_PERICENTER":75.6311,"MEAN_ANOMALY":351.3841,"EPHEMERIS_TYPE":0,"CLASSIFICATION_TYPE":"U","NORAD_CAT_ID":65791,"ELEMENT_SET_NO":999,"REV_AT_EPOCH":304,"BSTAR":-0.00095264944,"MEAN_MOTION_DOT":-0.0015604,"MEAN_MOTION_DDOT":0},{"OBJECT_NAME":"STARLINK-35373","OBJECT_ID":"2025-218B","EPOCH":"2025-10-07T14:00:01.999872","MEAN_MOTION":15.77700975,"ECCENTRICITY":0.00014522,"INCLINATION":97.5964,"RA_OF_ASC_NODE":140.3802,"ARG_OF_PERICENTER":99.0784,"MEAN_ANOMALY":329.8677,"EPHEMERIS_TYPE":0,"CLASSIFICATION_TYPE":"U","NORAD_CAT_ID":65792,"ELEMENT_SET_NO":999,"REV_AT_EPOCH":304,"BSTAR":-0.00088860673,"MEAN_MOTION_DOT":-0.0014565,"MEAN_MOTION_DDOT":0},{"OBJECT_NAME":"STARLINK-35383","OBJECT_ID":"2025-218C","EPOCH":"2025-10-07T14:00:01.999872","MEAN_MOTION":15.77660196,"ECCENTRICITY":0.00018026,"INCLINATION":97.5965,"RA_OF_ASC_NODE":140.3821,"ARG_OF_PERICENTER":90.8901,"MEAN_ANOMALY":341.9129,"EPHEMERIS_TYPE":0,"CLASSIFICATION_TYPE":"U","NORAD_CAT_ID":65793,"ELEMENT_SET_NO":999,"REV_AT_EPOCH":304,"BSTAR":-0.00046319511,"MEAN_MOTION_DOT":-0.00076464,"MEAN_MOTION_DDOT":0},{"OBJECT_NAME":"STARLINK-35378","OBJECT_ID":"2025-218D","EPOCH":"2025-10-07T14:00:01.999872","MEAN_MOTION":15.77644674,"ECCENTRICITY":0.00017683,"INCLINATION":97.5959,"RA_OF_ASC_NODE":140.3822,"ARG_OF_PERICENTER":99.8661,"MEAN_ANOMALY":334.8557,"EPHEMERIS_TYPE":0,"CLASSIFICATION_TYPE":"U","NORAD_CAT_ID":65794,"ELEMENT_SET_NO":999,"REV_AT_EPOCH":278,"BSTAR":-0.00022776295,"MEAN_MOTION_DOT":-0.00037815,"MEAN_MOTION_DDOT":0},{"OBJECT_NAME":"STARLINK-35406","OBJECT_ID":"2025-218E","EPOCH":"2025-10-07T14:00:01.999872","MEAN_MOTION":15.77673394,"ECCENTRICITY":0.0001566,"INCLINATION":97.5961,"RA_OF_ASC_NODE":140.3808,"ARG_OF_PERICENTER":78.0333,"MEAN_ANOMALY":352.8447,"EPHEMERIS_TYPE":0,"CLASSIFICATION_TYPE":"U","NORAD_CAT_ID":65795,"ELEMENT_SET_NO":999,"REV_AT_EPOCH":304,"BSTAR":-0.000577566,"MEAN_MOTION_DOT":-0.00095156,"MEAN_MOTION_DDOT":0},{"OBJECT_NAME":"STARLINK-35390","OBJECT_ID":"2025-218F","EPOCH":"2025-10-07T14:00:01.999872","MEAN_MOTION":15.77651138,"ECCENTRICITY":0.00012246,"INCLINATION":97.5967,"RA_OF_ASC_NODE":140.3848,"ARG_OF_PERICENTER":76.3931,"MEAN_ANOMALY":2.1645,"EPHEMERIS_TYPE":0,"CLASSIFICATION_TYPE":"U","NORAD_CAT_ID":65796,"ELEMENT_SET_NO":999,"REV_AT_EPOCH":293,"BSTAR":-0.00027405808,"MEAN_MOTION_DOT":-0.00045441,"MEAN_MOTION_DDOT":0},{"OBJECT_NAME":"STARLINK-35412","OBJECT_ID":"2025-218G","EPOCH":"2025-10-07T14:00:01.999872","MEAN_MOTION":15.77667258,"ECCENTRICITY":0.00014227,"INCLINATION":97.596,"RA_OF_ASC_NODE":140.3847,"ARG_OF_PERICENTER":77.1414,"MEAN_ANOMALY":3.3401,"EPHEMERIS_TYPE":0,"CLASSIFICATION_TYPE":"U","NORAD_CAT_ID":65797,"ELEMENT_SET_NO":999,"REV_AT_EPOCH":304,"BSTAR":-0.00051248211,"MEAN_MOTION_DOT":-0.00084528,"MEAN_MOTION_DDOT":0},{"OBJECT_NAME":"STARLINK-35414","OBJECT_ID":"2025-218H","EPOCH":"2025-10-07T14:00:01.999872","MEAN_MOTION":15.77649948,"ECCENTRICITY":0.00012071,"INCLINATION":97.5966,"RA_OF_ASC_NODE":140.384,"ARG_OF_PERICENTER":69.2376,"MEAN_ANOMALY":7.3953,"EPHEMERIS_TYPE":0,"CLASSIFICATION_TYPE":"U","NORAD_CAT_ID":65798,"ELEMENT_SET_NO":999,"REV_AT_EPOCH":304,"BSTAR":-0.00021669832,"MEAN_MOTION_DOT":-0.00035998,"MEAN_MOTION_DDOT":0},{"OBJECT_NAME":"STARLINK-35357","OBJECT_ID":"2025-218J","EPOCH":"2025-10-07T14:00:01.999872","MEAN_MOTION":15.77674721,"ECCENTRICITY":0.00015927,"INCLINATION":97.5964,"RA_OF_ASC_NODE":140.3867,"ARG_OF_PERICENTER":92.3542,"MEAN_ANOMALY":351.9714,"EPHEMERIS_TYPE":0,"CLASSIFICATION_TYPE":"U","NORAD_CAT_ID":65799,"ELEMENT_SET_NO":999,"REV_AT_EPOCH":304,"BSTAR":-0.00064386358,"MEAN_MOTION_DOT":-0.00105937,"MEAN_MOTION_DDOT":0},{"OBJECT_NAME":"STARLINK-35300","OBJECT_ID":"2025-218K","EPOCH":"2025-10-07T14:00:01.999872","MEAN_MOTION":15.77676833,"ECCENTRICITY":0.00017867,"INCLINATION":97.596,"RA_OF_ASC_NODE":140.3856,"ARG_OF_PERICENTER":84.8469,"MEAN_ANOMALY":357.5559,"EPHEMERIS_TYPE":0,"CLASSIFICATION_TYPE":"U","NORAD_CAT_ID":65800,"ELEMENT_SET_NO":999,"REV_AT_EPOCH":289,"BSTAR":-0.00063169295,"MEAN_MOTION_DOT":-0.00103974,"MEAN_MOTION_DDOT":0},{"OBJECT_NAME":"STARLINK-35296","OBJECT_ID":"2025-218L","EPOCH":"2025-10-07T14:00:01.999872","MEAN_MOTION":15.77594856,"ECCENTRICITY":0.00024341,"INCLINATION":97.596,"RA_OF_ASC_NODE":140.3878,"ARG_OF_PERICENTER":87.6253,"MEAN_ANOMALY":0.5179,"EPHEMERIS_TYPE":0,"CLASSIFICATION_TYPE":"U","NORAD_CAT_ID":65801,"ELEMENT_SET_NO":999,"REV_AT_EPOCH":304,"BSTAR":0.00041976562,"MEAN_MOTION_DOT":0.00070001,"MEAN_MOTION_DDOT":0},{"OBJECT_NAME":"STARLINK-34919","OBJECT_ID":"2025-218M","EPOCH":"2025-10-07T14:00:01.999872","MEAN_MOTION":15.7767433,"ECCENTRICITY":0.00016536,"INCLINATION":97.5961,"RA_OF_ASC_NODE":140.3874,"ARG_OF_PERICENTER":88.5797,"MEAN_ANOMALY":357.6668,"EPHEMERIS_TYPE":0,"CLASSIFICATION_TYPE":"U","NORAD_CAT_ID":65802,"ELEMENT_SET_NO":999,"REV_AT_EPOCH":304,"BSTAR":-0.00063201243,"MEAN_MOTION_DOT":-0.00104012,"MEAN_MOTION_DDOT":0},{"OBJECT_NAME":"STARLINK-35286","OBJECT_ID":"2025-218N","EPOCH":"2025-10-07T14:00:01.999872","MEAN_MOTION":15.77679845,"ECCENTRICITY":0.00019871,"INCLINATION":97.5962,"RA_OF_ASC_NODE":140.3891,"ARG_OF_PERICENTER":93.5391,"MEAN_ANOMALY":356.5455,"EPHEMERIS_TYPE":0,"CLASSIFICATION_TYPE":"U","NORAD_CAT_ID":65803,"ELEMENT_SET_NO":999,"REV_AT_EPOCH":304,"BSTAR":-0.0007000455,"MEAN_MOTION_DOT":-0.00115081,"MEAN_MOTION_DDOT":0}]
