65673,STARLINK-35177,2025,91.94,-1.0,+,97.6,Active,0,LEO,USA,USA,Unknown,Unknown,Unknown,1 65673U 25211X   25280.66670139 -.00071197  00000+0 -13177-2 0  9990,2 65673  97.6033 322.2272 0001007  88.9812 209.5612 15.49218048  3753,15.49218048,0.0001007,LEO
65674,STARLINK-35254,2025,91.94,-1.0,+,97.6,Active,0,LEO,USA,USA,Unknown,Unknown,Unknown,1 65674U 25211Y   25280.66670139 -.00086669  00000+0 -16070-2 0  9996,2 65674  97.6034 322.2283 0001202  87.0139 213.4385 15.49227457  3919,15.49227457,0.0001202,LEO
65675,STARLINK-34749,2025,91.94,-1.0,+,97.6,Active,0,LEO,USA,USA,Unknown,Unknown,Unknown,1 65675U 25211Z   25280.66670139 -.00093716  00000+0 -17392-2 0  9996,2 65675  97.6034 322.2262 0001193  77.7392 218.8804 15.49230223  3968,15.49230223,0.0001193,LEO
65791,STARLINK-35330,2025,91.27,-1.0,+,97.6,Active,0,LEO,USA,USA,Unknown,Unknown,Unknown,1 65791U 25218A   25280.58335648 -.00156040  00000+0 -95265-3 0  9992,2 65791  97.5961 140.3790 0001391  75.6311 351.3841 15.77714058  3045,15.77714058,0.0001391,LEO
65792,STARLINK-35373,2025,91.27,-1.0,+,97.6,Active,0,LEO,USA,USA,Unknown,Unknown,Unknown,1 65792U 25218B   25280.58335648 -.00145650  00000+0 -88861-3 0  9992,2 65792  97.5964 140.3802 0001452  99.0784 329.8677 15.77700975  3045,15.77700975,0.0001452,LEO
65793,STARLINK-35383,2025,91.27,-1.0,+,97.6,Active,0,LEO,USA,USA,Unknown,Unknown,Unknown,1 65793U 25218C   25280.58335648 -.00076464  00000+0 -46320-3 0  9993,2 65793  97.5965 140.3821 0001802  90.8901 341.9129 15.77660196  3044,15.77660196,0.0001802,LEO
65794,STARLINK-35378,2025,91.28,-1.0,+,97.6,Active,0,LEO,USA,USA,Unknown,Unknown,Unknown,1 65794U 25218D   25280.58335648 -.00037815  00000+0 -22776-3 0  9990,2 65794  97.5959 140.3822 0001768  99.8661 334.8557 15.77644674  2781,15.77644674,0.0001768,LEO
65795,STARLINK-35406,2025,91.27,-1.0,+,97.6,Active,0,LEO,USA,USA,Unknown,Unknown,Unknown,1 65795U 25218E   25280.58335648 -.00095156  00000+0 -57757-3 0  9990,2 65795  97.5961 140.3808 0001566  78.0333 352.8447 15.77673394  3049,15.77673394,0.0001566,LEO
65796,STARLINK-35390,2025,91.27,-1.0,+,97.6,Active,0,LEO,USA,USA,Unknown,Unknown,Unknown,1 65796U 25218F   25280.58335648 -.00045441  00000+0 -27406-3 0  9991,2 65796  97.5967 140.3848 0001224  76.3931   2.1645 15.77651138  2930,15.77651138,0.0001224,LEO
65797,STARLINK-35412,2025,91.27,-1.0,+,97.6,Active,0,LEO,USA,USA,Unknown,Unknown,Unknown,1 65797U 25218G   25280.58335648 -.00084528  00000+0 -51248-3 0  9992,2 65797  97.5960 140.3847 0001422  77.1414   3.3401 15.77667258  3044,15.77667258,0.0001422,LEO
65798,STARLINK-35414,2025,91.28,-1.0,+,97.6,Active,0,LEO,USA,USA,Unknown,Unknown,Unknown,1 65798U 25218H   25280.58335648 -.00035998  00000+0 -21670-3 0  9996,2 65798  97.5966 140.3840 0001207  69.2376   7.3953 15.77649948  3046,15.77649948,0.0001207,LEO
65799,STARLINK-35357,2025,91.27,-1.0,+,97.6,Active,0,LEO,USA,USA,Unknown,Unknown,Unknown,1 65799U 25218J   25280.58335648 -.00105937  00000+0 -64386-3 0  9999,2 65799  97.5964 140.3867 0001592  92.3542 351.9714 15.77674721  3043,15.77674721,0.0001592,LEO
65800,STARLINK-35300,2025,91.27,-1.0,+,97.6,Active,0,LEO,USA,USA,Unknown,Unknown,Unknown,1 65800U 25218K   25280.58335648 -.00103974  00000+0 -63169-3 0  9999,2 65800  97.5960 140.3856 0001786  84.8469 357.5559 15.77676833  2896,15.77676833,0.0001786,LEO
65801,STARLINK-35296,2025,91.28,-1.0,+,97.6,Active,0,LEO,USA,USA,Unknown,Unknown,Unknown,1 65801U 25218L   25280.58335648  .00070001  00000+0  41977-3 0  9995,2 65801  97.5960 140.3878 0002434  87.6253   0.5179 15.77594856  3049,15.77594856,0.0002434,LEO
65802,STARLINK-34919,2025,91.27,-1.0,+,97.6,Active,0,LEO,USA,USA,Unknown,Unknown,Unknown,1 65802U 25218M   25280.58335648 -.00104012  00000+0 -63201-3 0  9992,2 65802  97.5961 140.3874 0001653  88.5797 357.6668 15.77674330  3047,15.7767433,0.0001653,LEO
65803,STARLINK-35286,2025,91.27,-1.0,+,97.6,Active,0,LEO,USA,USA,Unknown,Unknown,Unknown,1 65803U 25218N   25280.58335648 -.00115081  00000+0 -70005-3 0  9991,2 65803  97.5962 140.3891 0001987  93.5391 356.5455 15.77679845  3042,15.77679845,0.0001987,LEO
